JINJUSAT-1B             
1 63210U 25052A   26068.66363707  .00019955  00000+0  68430-3 0  9998
2 63210  97.4113 325.4613 0005550  82.1930 277.9941 15.30194857 54866
STARLINK-34595          
1 64749U 25144AB  26068.57890568  .00026449  00000+0  90197-3 0  9999
2 64749  53.1595 181.6363 0001077  93.2360 266.8764 15.30199077 39694
