[{"OBJECT_NAME":"JINJUSAT-1B","OBJECT_ID":"2025-052A","EPOCH":"2026-03-09T15:55:38.242848","MEAN_MOTION":15.30194857,"ECCENTRICITY":0.00055504,"INCLINATION":97.4113,"RA_OF_ASC_NODE":325.4613,"ARG_OF_PERICENTER":82.193,"MEAN_ANOMALY":277.9941,"EPHEMERIS_TYPE":0,"CLASSIFICATION_TYPE":"U","NORAD_CAT_ID":63210,"ELEMENT_SET_NO":999,"REV_AT_EPOCH":5486,"BSTAR":0.00068430401,"MEAN_MOTION_DOT":0.00019955,"MEAN_MOTION_DDOT":0},{"OBJECT_NAME":"STARLINK-34595","OBJECT_ID":"2025-144AB","EPOCH":"2026-03-09T13:53:37.450752","MEAN_MOTION":15.30199077,"ECCENTRICITY":0.0001077,"INCLINATION":53.1595,"RA_OF_ASC_NODE":181.6363,"ARG_OF_PERICENTER":93.236,"MEAN_ANOMALY":266.8764,"EPHEMERIS_TYPE":0,"CLASSIFICATION_TYPE":"U","NORAD_CAT_ID":64749,"ELEMENT_SET_NO":999,"REV_AT_EPOCH":3969,"BSTAR":0.00090197,"MEAN_MOTION_DOT":0.00026449,"MEAN_MOTION_DDOT":0}]
